STARLINK-5107
1 54826U 22177G   26090.83335647  .00012763  00000+0  49693-3 0  9992
2 54826  43.0007  11.0472 0001629 256.8859 312.9953 15.25907730  5766
STARLINK-5432
1 54848U 22177AE  26090.02402940  .00001918  00000+0  83150-4 0  9995
2 54848  43.0032   1.0856 0001706 294.2058  65.8615 15.25904532180351
STARLINK-5675
1 55340U 23013K   26090.83335647  .00001243  00000+0  57335-4 0  9998
2 55340  42.9999 177.6473 0001639 280.2262 246.7661 15.25912518  5643
STARLINK-5674
1 55465U 23015S   26090.83335647  .00811800  00000+0  28807-1 0  9995
2 55465  43.0012 203.3288 0002130 272.8143  47.1971 15.25725889  5765
STARLINK-5672
1 55468U 23015V   26090.83335647  .00914397  00000+0  32436-1 0  9996
2 55468  43.0005 203.4385 0002178 263.7108   9.1827 15.25853186  5817
STARLINK-5749
1 55569U 23020A   26090.83335647  .00069628  00000+0  26498-2 0  9994
2 55569  43.0006 243.0411 0002027 271.3258 152.5029 15.25868376  5829
STARLINK-5739
1 55571U 23020C   26090.83335647  .00058619  00000+0  22353-2 0  9991
2 55571  43.0003 243.1522 0001551 274.7392 101.3627 15.25874585  5825
STARLINK-5732
1 55572U 23020D   26090.83335647  .00116538  00000+0  44074-2 0  9991
2 55572  43.0004 243.1127 0001180 274.5149 118.0974 15.25815008  5818
STARLINK-5738
1 55573U 23020E   26090.83335647  .00056835  00000+0  21688-2 0  9991
2 55573  43.0044 242.9845 0001458 265.6209 181.9483 15.25864222  5819
STARLINK-5747
1 55574U 23020F   26090.83335647  .00100826  00000+0  38273-2 0  9990
2 55574  42.9998 243.2111 0001719 282.3917  66.7075 15.25775119  5765
STARLINK-5745
1 55575U 23020G   26090.83335647  .00069673  00000+0  26516-2 0  9992
2 55575  43.0006 242.9632 0001950 272.5402 182.5180 15.25866925  5815
STARLINK-5728
1 55588U 23020V   26090.71920274  .00001745  00000+0  76534-4 0  9992
2 55588  43.0014 240.6403 0001326 271.0346  89.0353 15.25902962172288
STARLINK-5956
1 55994U 23042J   26090.83335647  .00071699  00000+0  27323-2 0  9999
2 55994  42.9989 294.2063 0001174 252.7804 337.9187 15.25811450  5816
STARLINK-5789
1 56003U 23042T   26090.83335647  .00064380  00000+0  24616-2 0  9992
2 56003  42.9997 294.6065 0001651 261.2634 156.3938 15.25746935  5710
STARLINK-5806
1 56007U 23042X   26090.83335647  .00010017  00000+0  39239-3 0  9992
2 56007  42.9994 294.1589 0001390 256.8975 350.7492 15.25899582  5829
STARLINK-5968
1 56010U 23042AA  26090.83335647  .00060722  00000+0  23176-2 0  9996
2 56010  42.9995 294.2161 0000905 278.8572 301.8580 15.25830200  5578
STARLINK-5770
1 56026U 23042AS  26090.83335647  .00029682  00000+0  11404-2 0  9994
2 56026  42.9994 279.6932 0001463 272.0105 233.3950 15.25897893  5767
STARLINK-5782
1 56034U 23042BA  26090.83335647  .00829687  00000+0  29291-1 0  9998
2 56034  42.9992 280.2535 0001882 256.4499   8.5663 15.25835652  5823
STARLINK-5793
1 56038U 23042BE  26090.83335647  .00827776  00000+0  29187-1 0  9993
2 56038  42.9992 280.2155 0002137 260.9631  20.0325 15.25884765  5820
STARLINK-6076
1 56100U 23046H   26090.19984554  .00003714  00000+0  15169-3 0  9998
2 56100  43.0040  39.0213 0001437 254.7587 105.3106 15.25921944165332
STARLINK-6081
1 56108U 23046R   26090.83335647  .00055637  00000+0  21219-2 0  9993
2 56108  43.0010  36.3050 0001595 255.7050 345.1360 15.25892082  5819
STARLINK-6114
1 56116U 23046Z   26090.83335647  .00036803  00000+0  14107-2 0  9994
2 56116  43.0012  36.3463 0001351 257.4791 324.2333 15.25888590  5816
STARLINK-6258
1 56413U 23061AR  26090.83335647  .00042703  00000+0  16341-2 0  9999
2 56413  43.0011  62.1165 0001645 274.8695 295.7687 15.25885149  5814
STARLINK-6261
1 56417U 23061AV  26090.83335647  .00880873  00000+0  31342-1 0  9998
2 56417  43.0001  61.7750 0001580 277.2978  77.3769 15.25846040  5813
STARLINK-5350
1 56419U 23061AX  26090.83335647  .00874075  00000+0  31174-1 0  9990
2 56419  42.9999  61.7469 0001194 286.1839  78.7326 15.25784697  5815
STARLINK-5340
1 56506U 23065D   26090.83335647  .00036988  00000+0  14177-2 0  9999
2 56506  42.9998  75.7727 0001261 256.0623 343.6965 15.25888227  5812
STARLINK-6307
1 56529U 23065AC  26090.83335647  .00043408  00000+0  16607-2 0  9999
2 56529  43.0003  75.5554 0001374 269.0629  60.4138 15.25885727  5815
STARLINK-6312
1 56536U 23065AK  26090.83335647 -.00018589  00000+0 -70268-3 0  9995
2 56536  43.0054 101.3586 0001353 271.6769 155.8796 15.25904025  5714
STARLINK-6136
1 56540U 23065AP  26090.83335647  .00001077  00000+0  51065-4 0  9997
2 56540  43.0042 101.5320 0001106 260.3091  93.2960 15.25875258  5659
STARLINK-6171
1 56883U 23083H   26090.83335647  .00845500  00000+0  30133-1 0  9994
2 56883  43.0001 319.6899 0001897 261.9159  48.4633 15.25892742  5764
STARLINK-5850
1 57049U 23088B   26090.83335647  .00838325  00000+0  29975-1 0  9993
2 57049  43.0000 345.5457 0001609 227.9712 350.5665 15.25802901  5719
STARLINK-5879
1 57153U 23090BE  26090.83335647 -.00028333  00000+0 -10770-2 0  9998
2 57153  43.0059 126.7985 0001655 261.4926  37.6425 15.25922086  5674
STARLINK-5520
1 57219U 23094B   26090.83335647  .00040432  00000+0  15480-2 0  9990
2 57219  43.0005 268.6337 0001812 264.0131 224.9050 15.25888031  5763
STARLINK-6380
1 57344U 23099S   26090.83335647 -.00021097  00000+0 -79913-3 0  9994
2 57344  43.0001 126.6966 0001181 266.0331 341.2117 15.25903322  5816
STARLINK-30823
1 58248U 23171U   26090.25794019 -.00004627  00000+0 -16741-3 0  9997
2 58248  43.0042 163.3720 0002946  58.6010 301.5128 15.25853179133031
